#cP2022  3 11 18  0  0.00000000     576 d+D   IGb14 EXT AIUB
## 2200 496800.00000000   300.00000000 59649 0.7500000000000
+   76   G01G03G04G05G06G07G08G09G10G11G12G13G14G15G16G17G18
+        G19G20G21G22G23G24G25G26G27G28G29G30G31G32R01R02R03
+        R04R05R07R08R09R11R12R13R14R15R17R18R19R20R21R22R24
+        E01E02E03E04E05E07E08E09E10E11E12E13E14E15E18E19E21
+        E25E26E27E30E31E33E34E36  0  0  0  0  0  0  0  0  0
++         5  5  8  7  7  7  6  6  5  8  7  7  7  7  7  7  8
++         6  7  7  7  7  6  6  7  6  7  7  6  7  7  9  7  8
++         8  7  8  7  7  5  7  7  6  7  8  7  9  9  8  8  8
++         5  5  5  6  6  6  6  6  6  6  6  6  7  6  8  7  6
++         5  7  6  6  6  6  7  6  0  0  0  0  0  0  0  0  0
%c M  cc GPS ccc cccc cccc cccc cccc ccccc ccccc ccccc ccccc
%c cc cc ccc ccc cccc cccc cccc cccc ccccc ccccc ccccc ccccc
%f  1.2500000  1.025000000  0.00000000000  0.000000000000000
%f  0.0000000  0.000000000  0.00000000000  0.000000000000000
%i    0    0    0    0      0      0      0      0         0
%i    0    0    0    0      0      0      0      0         0
/* Center for Orbit Determination in Europe (CODE)          
/* Ultra-rapid GRE orbits starting year-day 22070 18 hour   
/* Observed/predicted: 24/24 hours (data used up to 071R)   
/* PCV:IGS14      OL/AL:FES2014b NONE     YN ORB:CoN CLK:BRD
*  2022  3 13  4  5  0.00000000
PG01   -527.744487  15471.051384 -21813.349186    410.245802               P   P
PG03   8916.585548  20416.797532 -14647.015371   -161.121986               P   P
PG04    107.261484  25416.175479   7567.998686   -184.007998               P   P
PG05   6573.589795 -13917.312181  21472.055785    -74.482219               P   P
PG06  25388.214931  -4862.749374  -6214.381468    229.568957               P   P
PG07  16397.033913   8854.226927  19489.461974    315.708984               P   P
PG08  -5945.126492  25514.048481   2968.571560    -59.634614               P   P
PG09   8732.014456  19030.847579  16253.639737   -350.043867               P   P
PG10 -22632.982681  -9888.569374 -10004.071263   -345.325773               P   P
PG11  21753.796230 -12744.553877   8336.393061    -64.651956               P   P
PG12  -4463.969050 -20321.597381 -16850.492073   -184.067049               P   P
PG13  13125.981017 -21094.982068   9002.735409    275.971298               P   P
PG14  22272.613053  11026.966223  -9479.427947    -93.295917               P   P
PG15   2565.123847 -26164.332497   1850.641936    -77.210965               P   P
PG16 -11556.638372   9486.109354  21695.171768   -480.011606               P   P
PG17  14182.209453   3464.653426 -21758.755602    586.505551               P   P
PG18 -15904.039438  -8599.550590  19487.289254    221.083434               P   P
PG19  15949.997170  -4499.508425 -20972.391854    130.303337               P   P
PG20  15020.221245  -8191.118497  20260.588837    516.324834               P   P
PG21 -11056.454338  17298.775002 -15811.538772    159.308043               P   P
PG22 -15919.145741   8271.486196 -19120.498320    226.682973               P   P
PG23 -20705.198697 -16713.066237    479.615670     -6.342272               P   P
PG24   4069.869061 -17732.292824 -19513.411822    268.505419               P   P
PG25 -16325.191506 -19982.782856  -7172.743753    297.564859               P   P
PG26 -20299.205640    579.887698  17190.416185    190.354801               P   P
PG27 -12287.264124  19248.677342  13015.416448    152.092852               P   P
PG28  20159.331934   4673.455167 -16001.938666    381.683022               P   P
PG29  -5374.482449 -20892.422766  15408.715116   -490.698262               P   P
PG30  22600.639142   2979.567642  13904.564401   -518.394579               P   P
PG31 -25875.854343   5980.069166  -3826.387404   -168.682682               P   P
PG32 -15413.065635    808.644243 -21461.976271    -83.758518               P   P
PR01  -7501.495234  10964.929114 -21772.748595      7.216819               P   P
PR02   2909.873218  24002.436166  -7985.411708    512.277707               P   P
PR03  10818.829096  21064.989622   9457.052806     52.998774               P   P
PR04  12293.614484   6557.185793  21395.788478    131.681209               P   P
PR05   7168.798626 -11628.425015  21561.905432     89.287822               P   P
PR07 -10959.802339 -20770.352344  -9973.759582     32.576287               P   P
PR08 -12382.175796  -6437.074462 -21298.275843    -63.968822               P   P
PR09  -1172.936679 -11716.102933 -22608.775153     44.052125               P   P
PR11 -24989.009493  -4550.133696   2293.242536     43.668477               P   P
PR12 -16968.898791   5013.589002  18402.284589     17.426463               P   P
PR13    -36.340553  11239.014802  22876.692144    -19.289400               P   P
PR14  18361.433465  11158.751369  13762.954003     75.314680               P   P
PR15  24923.719767   4479.382875  -3046.664946     97.592361               P   P
PR17   5140.648758   9708.186711 -23014.119488    509.054343               P   P
PR18  16366.223247  -4510.222556 -19046.917166    110.102146               P   P
PR19  19567.460415 -15172.728187  -6137.571624   -181.360442               P   P
PR20  10600.370151 -18712.326613  13765.246475    -66.602603               P   P
PR21  -6254.288419  -8530.771858  23211.603680   -284.861975               P   P
PR22 -16676.709597   5071.208999  18565.055792   -170.247321               P   P
PR24  -9440.483370  18979.609211 -14175.442417     84.137180               P   P
PE01  14868.910412  -9622.268602 -23719.951701   -595.737284               P   P
PE02 -14756.498863   9714.468637  23745.357348    285.890694               P   P
PE03 -12400.197233  21340.584405 -16347.067136   -536.797214               P   P
PE04    668.852822 -29583.949279   -748.108556   -983.361876               P   P
PE05 -17075.777636    372.379053 -24170.928159   -200.892588               P   P
PE07  11755.618782  20506.509239  17829.935838   -647.794179               P   P
PE08   -298.063567  29582.511802   1134.499524   -494.203081               P   P
PE09 -11830.478492 -20250.117936 -18047.360411   5330.415559               P   P
PE10  -4442.426705 -15716.538481  24683.228203   -500.199896               P   P
PE11 -14928.932579  -9522.438926  23710.282677   4243.885158               P   P
PE12   6242.113110 -19245.594375  21617.411266   4716.288119               P   P
PE13  14326.122842   9868.598897 -23943.844515    427.233894               P   P
PE14  -4360.030294 -20595.800046  10820.709942  -1776.257648               P   P
PE15  -6357.236676  19219.834657 -21581.380353    758.123587               P   P
PE18  10628.179329  23731.352891 -19447.852755  -1690.620104               P   P
PE19  13417.178532 -19225.714015  18080.589215  -1224.224716               P   P
PE21  25788.022273   5574.139230 -13417.433370   -722.215830               P   P
PE25 -25860.377188  -5801.461046  13192.393719   -566.604019               P   P
PE26  26734.964404  -5814.766802 -11296.584721   -906.005234               P   P
PE27  22518.492270  18485.473331   5184.602138   -251.906657               P   P
PE30   4827.652897  20197.597919  21070.860053   -344.127190               P   P
PE31  -6039.617990 -20412.271085 -20570.534778   -493.446586               P   P
PE33  23202.417786 -17203.704789   6514.419699   -458.625619               P   P
PE34 -23049.121945  17319.422014  -6706.622597   -506.454166               P   P
PE36 -26439.881309   5194.263258  12242.366488   -344.512503               P   P
EOF
